ALOS-4 (DAICHI-4)       
1 60182U 24123A   24250.55950583  .00008540  00000+0  11489-2 0  9993
2 60182  97.9217 346.0508 0001509  96.5538 263.5845 14.79473934  9970
